[{"OBJECT_NAME":"O3B FM10","OBJECT_ID":"2014-083A","EPOCH":"2026-03-11T09:54:27.943488","MEAN_MOTION":5.00115268,"ECCENTRICITY":0.00026511,"INCLINATION":0.0429,"RA_OF_ASC_NODE":348.257,"ARG_OF_PERICENTER":1.066,"MEAN_ANOMALY":10.6675,"EPHEMERIS_TYPE":0,"CLASSIFICATION_TYPE":"U","NORAD_CAT_ID":40348,"ELEMENT_SET_NO":999,"REV_AT_EPOCH":20499,"BSTAR":0,"MEAN_MOTION_DOT":-2.4e-7,"MEAN_MOTION_DDOT":0},{"OBJECT_NAME":"O3B FM11","OBJECT_ID":"2014-083B","EPOCH":"2026-03-14T10:10:24.962592","MEAN_MOTION":5.00115618,"ECCENTRICITY":0.00030916,"INCLINATION":0.0572,"RA_OF_ASC_NODE":0.2592,"ARG_OF_PERICENTER":341.0605,"MEAN_ANOMALY":18.6654,"EPHEMERIS_TYPE":0,"CLASSIFICATION_TYPE":"U","NORAD_CAT_ID":40349,"ELEMENT_SET_NO":999,"REV_AT_EPOCH":20516,"BSTAR":0,"MEAN_MOTION_DOT":-2.1e-7,"MEAN_MOTION_DDOT":0},{"OBJECT_NAME":"O3B FM12","OBJECT_ID":"2014-083C","EPOCH":"2026-03-14T10:49:25.354560","MEAN_MOTION":5.00115991,"ECCENTRICITY":0.00026136,"INCLINATION":0.0566,"RA_OF_ASC_NODE":359.5721,"ARG_OF_PERICENTER":347.2376,"MEAN_ANOMALY":13.1799,"EPHEMERIS_TYPE":0,"CLASSIFICATION_TYPE":"U","NORAD_CAT_ID":40350,"ELEMENT_SET_NO":999,"REV_AT_EPOCH":20518,"BSTAR":0,"MEAN_MOTION_DOT":-2.1e-7,"MEAN_MOTION_DDOT":0},{"OBJECT_NAME":"O3B FM9","OBJECT_ID":"2014-083D","EPOCH":"2026-03-14T06:40:12.988704","MEAN_MOTION":5.00115942,"ECCENTRICITY":0.00027185,"INCLINATION":0.0584,"RA_OF_ASC_NODE":0.4641,"ARG_OF_PERICENTER":351.8476,"MEAN_ANOMALY":7.6806,"EPHEMERIS_TYPE":0,"CLASSIFICATION_TYPE":"U","NORAD_CAT_ID":40351,"ELEMENT_SET_NO":999,"REV_AT_EPOCH":20532,"BSTAR":0,"MEAN_MOTION_DOT":-2.1e-7,"MEAN_MOTION_DDOT":0},{"OBJECT_NAME":"ASTRA 2G","OBJECT_ID":"2014-089A","EPOCH":"2026-03-14T13:46:41.848608","MEAN_MOTION":1.00269009,"ECCENTRICITY":0.00044099,"INCLINATION":0.0211,"RA_OF_ASC_NODE":357.6952,"ARG_OF_PERICENTER":33.6264,"MEAN_ANOMALY":15.7446,"EPHEMERIS_TYPE":0,"CLASSIFICATION_TYPE":"U","NORAD_CAT_ID":40364,"ELEMENT_SET_NO":999,"REV_AT_EPOCH":4101,"BSTAR":0,"MEAN_MOTION_DOT":0,"MEAN_MOTION_DDOT":0},{"OBJECT_NAME":"SES-9","OBJECT_ID":"2016-013A","EPOCH":"2026-03-12T14:21:23.683392","MEAN_MOTION":1.00271324,"ECCENTRICITY":0.0001753,"INCLINATION":0.0283,"RA_OF_ASC_NODE":280.9183,"ARG_OF_PERICENTER":124.7546,"MEAN_ANOMALY":88.1882,"EPHEMERIS_TYPE":0,"CLASSIFICATION_TYPE":"U","NORAD_CAT_ID":41380,"ELEMENT_SET_NO":999,"REV_AT_EPOCH":3647,"BSTAR":0,"MEAN_MOTION_DOT":-3.44e-6,"MEAN_MOTION_DDOT":0},{"OBJECT_NAME":"SES-10","OBJECT_ID":"2017-017A","EPOCH":"2026-03-13T18:29:59.546112","MEAN_MOTION":1.00273246,"ECCENTRICITY":0.00025497,"INCLINATION":0.0225,"RA_OF_ASC_NODE":69.0512,"ARG_OF_PERICENTER":296.9547,"MEAN_ANOMALY":15.9789,"EPHEMERIS_TYPE":0,"CLASSIFICATION_TYPE":"U","NORAD_CAT_ID":42432,"ELEMENT_SET_NO":999,"REV_AT_EPOCH":3279,"BSTAR":0,"MEAN_MOTION_DOT":-2.73e-6,"MEAN_MOTION_DDOT":0},{"OBJECT_NAME":"SES-15","OBJECT_ID":"2017-026A","EPOCH":"2026-03-12T14:49:13.423008","MEAN_MOTION":1.00270524,"ECCENTRICITY":7.066e-5,"INCLINATION":0.0388,"RA_OF_ASC_NODE":330.9168,"ARG_OF_PERICENTER":38.8107,"MEAN_ANOMALY":253.6487,"EPHEMERIS_TYPE":0,"CLASSIFICATION_TYPE":"U","NORAD_CAT_ID":42709,"ELEMENT_SET_NO":999,"REV_AT_EPOCH":646,"BSTAR":0,"MEAN_MOTION_DOT":6.0e-7,"MEAN_MOTION_DDOT":0},{"OBJECT_NAME":"SES-11 (ECHOSTAR 105)","OBJECT_ID":"2017-063A","EPOCH":"2026-03-14T13:08:37.999392","MEAN_MOTION":1.00272135,"ECCENTRICITY":0.00024275,"INCLINATION":0.0296,"RA_OF_ASC_NODE":58.1236,"ARG_OF_PERICENTER":296.8672,"MEAN_ANOMALY":269.3825,"EPHEMERIS_TYPE":0,"CLASSIFICATION_TYPE":"U","NORAD_CAT_ID":42967,"ELEMENT_SET_NO":999,"REV_AT_EPOCH":3077,"BSTAR":0,"MEAN_MOTION_DOT":-9.0e-7,"MEAN_MOTION_DDOT":0},{"OBJECT_NAME":"SES-14","OBJECT_ID":"2018-012B","EPOCH":"2026-03-12T08:21:45.444096","MEAN_MOTION":1.00272273,"ECCENTRICITY":9.0e-5,"INCLINATION":0.0142,"RA_OF_ASC_NODE":73.2078,"ARG_OF_PERICENTER":285.1964,"MEAN_ANOMALY":249.4941,"EPHEMERIS_TYPE":0,"CLASSIFICATION_TYPE":"U","NORAD_CAT_ID":43175,"ELEMENT_SET_NO":999,"REV_AT_EPOCH":605,"BSTAR":0,"MEAN_MOTION_DOT":-2.78e-6,"MEAN_MOTION_DDOT":0},{"OBJECT_NAME":"O3B FM15","OBJECT_ID":"2018-024A","EPOCH":"2026-03-14T13:04:12.191520","MEAN_MOTION":5.00115732,"ECCENTRICITY":0.0002675,"INCLINATION":0.0491,"RA_OF_ASC_NODE":1.4158,"ARG_OF_PERICENTER":348.4607,"MEAN_ANOMALY":10.1147,"EPHEMERIS_TYPE":0,"CLASSIFICATION_TYPE":"U","NORAD_CAT_ID":43231,"ELEMENT_SET_NO":999,"REV_AT_EPOCH":14628,"BSTAR":0,"MEAN_MOTION_DOT":-2.0e-7,"MEAN_MOTION_DDOT":0},{"OBJECT_NAME":"O3B FM16","OBJECT_ID":"2018-024B","EPOCH":"2026-03-14T09:31:46.371072","MEAN_MOTION":5.00115912,"ECCENTRICITY":0.00028073,"INCLINATION":0.0455,"RA_OF_ASC_NODE":3.7254,"ARG_OF_PERICENTER":343.2116,"MEAN_ANOMALY":13.0522,"EPHEMERIS_TYPE":0,"CLASSIFICATION_TYPE":"U","NORAD_CAT_ID":43232,"ELEMENT_SET_NO":999,"REV_AT_EPOCH":14620,"BSTAR":0,"MEAN_MOTION_DOT":-2.1e-7,"MEAN_MOTION_DDOT":0},{"OBJECT_NAME":"O3B FM14","OBJECT_ID":"2018-024C","EPOCH":"2026-03-12T15:19:53.120928","MEAN_MOTION":5.00115666,"ECCENTRICITY":0.00028427,"INCLINATION":0.0439,"RA_OF_ASC_NODE":2.773,"ARG_OF_PERICENTER":349.0319,"MEAN_ANOMALY":8.1868,"EPHEMERIS_TYPE":0,"CLASSIFICATION_TYPE":"U","NORAD_CAT_ID":43233,"ELEMENT_SET_NO":999,"REV_AT_EPOCH":14612,"BSTAR":0,"MEAN_MOTION_DOT":-2.3e-7,"MEAN_MOTION_DDOT":0},{"OBJECT_NAME":"O3B FM13","OBJECT_ID":"2018-024D","EPOCH":"2026-03-13T02:30:24.004800","MEAN_MOTION":5.0011563,"ECCENTRICITY":0.00037966,"INCLINATION":0.0487,"RA_OF_ASC_NODE":334.7219,"ARG_OF_PERICENTER":336.321,"MEAN_ANOMALY":48.9207,"EPHEMERIS_TYPE":0,"CLASSIFICATION_TYPE":"U","NORAD_CAT_ID":43234,"ELEMENT_SET_NO":999,"REV_AT_EPOCH":14625,"BSTAR":0,"MEAN_MOTION_DOT":-2.2e-7,"MEAN_MOTION_DDOT":0},{"OBJECT_NAME":"SES-12","OBJECT_ID":"2018-049A","EPOCH":"2026-03-14T08:57:43.833600","MEAN_MOTION":1.00271135,"ECCENTRICITY":0.00018601,"INCLINATION":0.0192,"RA_OF_ASC_NODE":63.5919,"ARG_OF_PERICENTER":239.6464,"MEAN_ANOMALY":98.1739,"EPHEMERIS_TYPE":0,"CLASSIFICATION_TYPE":"U","NORAD_CAT_ID":43488,"ELEMENT_SET_NO":999,"REV_AT_EPOCH":2846,"BSTAR":0,"MEAN_MOTION_DOT":-2.7e-6,"MEAN_MOTION_DDOT":0},{"OBJECT_NAME":"O3B FM20","OBJECT_ID":"2019-020A","EPOCH":"2026-03-14T11:07:56.491392","MEAN_MOTION":5.00115522,"ECCENTRICITY":0.00027606,"INCLINATION":0.0522,"RA_OF_ASC_NODE":0.0201,"ARG_OF_PERICENTER":341.4113,"MEAN_ANOMALY":18.555,"EPHEMERIS_TYPE":0,"CLASSIFICATION_TYPE":"U","NORAD_CAT_ID":44112,"ELEMENT_SET_NO":999,"REV_AT_EPOCH":12683,"BSTAR":0,"MEAN_MOTION_DOT":-2.1e-7,"MEAN_MOTION_DDOT":0},{"OBJECT_NAME":"O3B FM19","OBJECT_ID":"2019-020B","EPOCH":"2026-03-14T11:46:59.370816","MEAN_MOTION":5.00115992,"ECCENTRICITY":0.00042151,"INCLINATION":0.0584,"RA_OF_ASC_NODE":353.1534,"ARG_OF_PERICENTER":353.6375,"MEAN_ANOMALY":13.1945,"EPHEMERIS_TYPE":0,"CLASSIFICATION_TYPE":"U","NORAD_CAT_ID":44113,"ELEMENT_SET_NO":999,"REV_AT_EPOCH":12669,"BSTAR":0,"MEAN_MOTION_DOT":-2.1e-7,"MEAN_MOTION_DDOT":0}]
